*******************************************************************************
JPL/HORIZONS                593 Titania (A906 FK)          2023-Sep-04 11:07:13
Rec #:     593 (+COV) Soln.date: 2023-Aug-24_05:26:11   # obs: 3355 (1906-2023)
 
IAU76/J2000 helio. ecliptic osc. elements (au, days, deg., period=Julian yrs):
 
  EPOCH=  2457638.5 ! 2016-Sep-07.00 (TDB)         Residual RMS= .18577
   EC= .214765174940223    QR= 2.120062073675367   TP= 2457571.0492712697
   OM= 75.99475840517495   W=  31.13550330246099   IN= 16.88413850086381
   A= 2.699908366282628    MA= 14.98536008208175   ADIST= 3.279754658889888
   PER= 4.43641            N= .222167505           ANGMOM= .027605899
   DAN= 2.17547            DDN= 3.15543            L= 106.0245771
   B= 8.6370462            MOID= 1.15202999        TP= 2016-Jul-01.5492712697
 
Asteroid physical parameters (km, seconds, rotational period in hours):
   GM= n.a.                RAD= 35.0725            ROTPER= 9.8968
   H= 9.41                 G= .060                 B-V= .657
                           ALBEDO= .070            STYP= C

ASTEROID comments: 
1: soln ref.= JPL#59, OCC=0
2: source=ORB
*******************************************************************************


*******************************************************************************
Ephemeris / API_USER Mon Sep  4 11:07:13 2023 Pasadena, USA      / Horizons
*******************************************************************************
Target body name: 593 Titania (A906 FK)           {source: JPL#59}
Center body name: Solar System Barycenter (0)     {source: DE441}
Center-site name: BODY CENTER
*******************************************************************************
Start time      : A.D. 2023-Aug-12 00:00:00.0000 TDB
Stop  time      : A.D. 2023-Aug-13 00:00:00.0000 TDB
Step-size       : 2880 minutes
*******************************************************************************
Center geodetic : 0.0, 0.0, 0.0                   {E-lon(deg),Lat(deg),Alt(km)}
Center cylindric: 0.0, 0.0, 0.0                   {E-lon(deg),Dxy(km),Dz(km)}
Center radii    : (undefined)
Small perturbers: Yes                             {source: SB441-N16}
Output units    : KM-S
Calendar mode   : Mixed Julian/Gregorian
Output type     : GEOMETRIC cartesian states
Output format   : 2 (position and velocity)
Reference frame : Ecliptic of J2000.0
*******************************************************************************
Initial IAU76/J2000 heliocentric ecliptic osculating elements (au, days, deg.):
  EPOCH=  2457638.5 ! 2016-Sep-07.00 (TDB)         Residual RMS= .18577        
   EC= .214765174940223    QR= 2.120062073675367   TP= 2457571.0492712697      
   OM= 75.99475840517495   W=  31.13550330246099   IN= 16.88413850086381       
  Equivalent ICRF heliocentric cartesian coordinates (au, au/d):
   X=-1.327753810384928E+00  Y= 1.278618632452091E+00  Z= 1.109803457589992E+00
  VX=-9.992901912008089E-03 VY=-8.049067228554394E-03 VZ=-9.020982765454203E-04
Asteroid physical parameters (km, seconds, rotational period in hours):        
   GM= n.a.                RAD= 35.0725            ROTPER= 9.8968              
   H= 9.41                 G= .060                 B-V= .657                   
                           ALBEDO= .070            STYP= C                     
*******************************************************************************
JDTDB
   X     Y     Z
   VX    VY    VZ
*******************************************************************************
$$SOE
2460168.500000000 = A.D. 2023-Aug-12 00:00:00.0000 TDB 
 X = 3.025303492841102E+08 Y =-3.514203224133762E+08 Z =-1.154690020119044E+08
 VX= 9.646668920798465E+00 VY= 1.133771386407505E+01 VZ=-2.004040727982201E+00
$$EOE
*******************************************************************************
 
TIME

  Barycentric Dynamical Time ("TDB" or T_eph) output was requested. This
continuous coordinate time is equivalent to the relativistic proper time
of a clock at rest in a reference frame co-moving with the solar system
barycenter but outside the system's gravity well. It is the independent
variable in the solar system relativistic equations of motion.

  TDB runs at a uniform rate of one SI second per second and is independent
of irregularities in Earth's rotation.
 
CALENDAR SYSTEM

  Mixed calendar mode was active such that calendar dates after AD 1582-Oct-15
(if any) are in the modern Gregorian system. Dates prior to 1582-Oct-5 (if any)
are in the Julian calendar system, which is automatically extended for dates
prior to its adoption on 45-Jan-1 BC.  The Julian calendar is useful for
matching historical dates. The Gregorian calendar more accurately corresponds
to the Earth's orbital motion and seasons. A "Gregorian-only" calendar mode is
available if such physical events are the primary interest.

REFERENCE FRAME AND COORDINATES

  Ecliptic at the standard reference epoch

    Reference epoch: J2000.0
    X-Y plane: adopted Earth orbital plane at the reference epoch
               Note: IAU76 obliquity of 84381.448 arcseconds wrt ICRF X-Y plane
    X-axis   : ICRF
    Z-axis   : perpendicular to the X-Y plane in the directional (+ or -) sense
               of Earth's north pole at the reference epoch.

  Symbol meaning:

    JDTDB    Julian Day Number, Barycentric Dynamical Time
      X      X-component of position vector (km)
      Y      Y-component of position vector (km)
      Z      Z-component of position vector (km)
      VX     X-component of velocity vector (km/sec)                           
      VY     Y-component of velocity vector (km/sec)                           
      VZ     Z-component of velocity vector (km/sec)                           

ABERRATIONS AND CORRECTIONS

 Geometric state vectors have NO corrections or aberrations applied.

Computations by ...

    Solar System Dynamics Group, Horizons On-Line Ephemeris System
    4800 Oak Grove Drive, Jet Propulsion Laboratory
    Pasadena, CA  91109   USA

    General site: https://ssd.jpl.nasa.gov/
    Mailing list: https://ssd.jpl.nasa.gov/email_list.html
    System news : https://ssd.jpl.nasa.gov/horizons/news.html
    User Guide  : https://ssd.jpl.nasa.gov/horizons/manual.html
    Connect     : browser        https://ssd.jpl.nasa.gov/horizons/app.html#/x
                  API            https://ssd-api.jpl.nasa.gov/doc/horizons.html
                  command-line   telnet ssd.jpl.nasa.gov 6775
                  e-mail/batch   https://ssd.jpl.nasa.gov/ftp/ssd/hrzn_batch.txt
                  scripts        https://ssd.jpl.nasa.gov/ftp/ssd/SCRIPTS
    Author      : Jon.D.Giorgini@jpl.nasa.gov
*******************************************************************************
